OSCAR 7 (AO-7)          
1 07530U 74089B   19117.91409413 -.00000029  00000-0  99301-4 0  9991
2 07530 101.7391  86.1164 0012574  86.8707 334.7599 12.53637761 34031
UOSAT 2 (UO-11)         
1 14781U 84021B   19117.95183937  .00000040  00000-0  11009-4 0  9999
2 14781  97.6156 145.1043 0009785 124.3218 235.8923 14.83079190870093
LUSAT (LO-19)           
1 20442U 90005G   19118.06680017  .00000003  00000-0  17405-4 0  9998
2 20442  98.6447  60.1648 0010828 305.4076  54.6096 14.32923287528984
ITAMSAT (IO-26)         
1 22826U 93061D   19117.94815153  .00000003  00000-0  19057-4 0  9993
2 22826  98.8950 105.4098 0009671 133.7213 226.4771 14.30389960334508
RADIO ROSTO (RS-15)     
1 23439U 94085A   19118.51907816 -.00000051  00000-0 -25344-3 0  9993
2 23439  64.8160 198.8777 0147181 123.1524 238.3617 11.27567714  2288
JAS-2 (FO-29)           
1 24278U 96046B   19118.52889371 -.00000035  00000-0  23203-6 0  9996
2 24278  98.5299 278.8975 0350538  12.8815 348.1002 13.53090746120887
TECHSAT 1B (GO-32)      
1 25397U 98043D   19117.89270194 -.00000013  00000-0  13426-4 0  9994
2 25397  98.6849  58.6756 0001554 141.4460 218.6829 14.23664146 80500
ISS (ZARYA)             
1 25544U 98067A   19118.86891519  .00001255  00000-0  27517-4 0  9996
2 25544  51.6417 246.3324 0000907 244.6705 257.8709 15.52600935167596
PCSAT (NO-44)           
1 26931U 01043C   19117.69411576 -.00000023  00000-0  23068-4 0  9996
2 26931  67.0493 137.8594 0006081 278.8758  81.1655 14.30539558917465
SAUDISAT 1C (SO-50)     
1 27607U 02058C   19117.76653537 -.00000028  00000-0  16927-4 0  9998
2 27607  64.5551 208.3494 0082380 266.4132  92.7546 14.75539138879378
CUTE-1 (CO-55)          
1 27844U 03031E   19118.01278144  .00000049  00000-0  41979-4 0  9996
2 27844  98.6857 126.9955 0009931 173.7420 186.3883 14.22172371820943
CUBESAT XI-IV (CO-57)   
1 27848U 03031J   19117.91983941  .00000032  00000-0  34476-4 0  9992
2 27848  98.6935 127.3925 0009574 185.1874 174.9206 14.21768150820755
MOZHAYETS 4 (RS-22)     
1 27939U 03042A   19118.40743951  .00000159  00000-0  37016-4 0  9998
2 27939  98.0313 255.2476 0012011 225.4273 134.5977 14.66772708833027
CUBESAT XI-V            
1 28895U 05043F   19117.89450122  .00000111  00000-0  30202-4 0  9998
2 28895  97.9509 262.4250 0017578 151.3361 208.8812 14.63652781719674
CUTE-1.7+APD II (CO-65) 
1 32785U 08021C   19118.52166621  .00000195  00000-0  26631-4 0  9992
2 32785  97.5497 120.6511 0014678  74.7317 285.5521 14.88285491596074
DELFI-C3 (DO-64)        
1 32789U 08021G   19117.69042736  .00001337  00000-0  93727-4 0  9992
2 32789  97.4695 168.9139 0010758 307.4253  52.5995 15.06826332599030
SEEDS II (CO-66)        
1 32791U 08021J   19118.02195524  .00000345  00000-0  40429-4 0  9996
2 32791  97.5294 126.0917 0014710  54.5046 305.7543 14.90784526596411
YUBILEINY (RS-30)       
1 32953U 08025A   19118.53720772  .00000020  00000-0  75656-4 0  9995
2 32953  82.5059 176.5770 0018120 238.2673 121.6636 12.43088992495952
KKS-1 (KISEKI)          
1 33499U 09002H   19118.20147410  .00000077  00000-0  19419-4 0  9990
2 33499  98.3538 315.2569 0009550  18.5056 341.6498 14.75426992551635
SWISSCUBE               
1 35932U 09051B   19118.13426949  .00000131  00000-0  40734-4 0  9992
2 35932  98.5826 282.6131 0006859 331.8847  28.1978 14.56267734509270
BEESAT-1                
1 35933U 09051C   19117.93432472  .00000107  00000-0  35153-4 0  9990
2 35933  98.5857 284.1405 0005389 349.7764  10.3323 14.56358989509279
ITUPSAT1                
1 35935U 09051E   19118.44340484  .00000093  00000-0  32526-4 0  9995
2 35935  98.5968 284.9058 0007571 341.1162  18.9752 14.55521375509189
XIWANG-1 (HOPE-1)       
1 36122U 09072B   19117.67254478 -.00000044  00000-0 -60539-5 0  9992
2 36122 100.0729 122.4978 0008048 101.2673 258.9344 13.16349119450033
JUGNU                   
1 37839U 11058B   19117.82647885  .00000311  00000-0  24225-4 0  9996
2 37839  19.9613 289.2951 0018956 115.0579 351.2479 14.12648427389914
SRMSAT                  
1 37841U 11058D   19118.01432580  .00000315  00000-0  28000-4 0  9994
2 37841  19.9731 343.8601 0011671 349.2834 121.9368 14.10629996389387
M-CUBED & EXP-1 PRIME   
1 37855U 11061F   19118.55351224  .00000542  00000-0  35460-4 0  9997
2 37855 101.7221 347.8895 0173793 228.3579 130.2640 15.05295817409084
STRAND-1                
1 39090U 13009E   19117.84294004  .00000032  00000-0  26317-4 0  9992
2 39090  98.4939 324.6568 0010381  83.8311 276.4057 14.35079907322931
SOMP                    
1 39134U 13015E   19117.58311934  .00000699  00000-0  41564-4 0  9991
2 39134  64.8633 189.2429 0025931 311.7408  48.1502 15.20018983332297
BEESAT-3                
1 39135U 13015F   19117.61083500  .00000586  00000-0  39063-4 0  9997
2 39135  64.8667 206.7291 0013465 321.1816  38.8341 15.17347821331955
BEESAT-2                
1 39136U 13015G   19117.76038057  .00000705  00000-0  45604-4 0  9992
2 39136  64.8694 209.9079 0014447 312.2913  47.6987 15.16792226332299
ZACUBE-1 (TSHEPISOSAT)  
1 39417U 13066B   19118.22513393  .00000181  00000-0  29205-4 0  9990
2 39417  97.5656 134.6123 0058406 201.3099 158.5681 14.81089649293425
GOMX-1                  
1 39430U 13066Q   19118.46986280  .00000213  00000-0  47256-4 0  9992
2 39430  97.7418  78.4124 0152710  55.9547 305.6041 14.59227376289132
CUBEBUG-2 (LO-74)       
1 39440U 13066AA  19117.95212927  .00000185  00000-0  32900-4 0  9994
2 39440  97.6022 119.4460 0078782 252.7711 106.4866 14.75829256291147
FUNCUBE-1 (AO-73)       
1 39444U 13066AE  19118.52412485  .00000212  00000-0  32418-4 0  9998
2 39444  97.5639 136.7891 0057731 194.3193 165.6387 14.81902853292351
UWE-3                   
1 39446U 13066AG  19118.51872247  .00000174  00000-0  29887-4 0  9998
2 39446  97.5827 126.9378 0068898 226.1699 133.3805 14.78363494291707
SPROUT                  
1 39770U 14029E   19118.50108203  .00000489  00000-0  60400-4 0  9996
2 39770  97.8797 222.1451 0007629 254.0971 105.9393 14.87271724267226
UNISAT-6                
1 40012U 14033C   19118.21839870  .00000131  00000-0  27167-4 0  9998
2 40012  97.7652 347.0257 0056857 263.9199  95.5530 14.73955333261103
DUCHIFAT-1              
1 40021U 14033M   19118.05684115  .00000387  00000-0  45427-4 0  9992
2 40021  97.9233  42.4838 0011841 215.5670 144.4759 14.90585528263857
QB50P1                  
1 40025U 14033R   19117.81892793  .00000167  00000-0  23759-4 0  9992
2 40025  97.9064  37.5861 0011279 225.9124 134.1165 14.88910729263600
NUDT-PHONESAT           
1 40900U 15049B   19118.45294336  .00002013  00000-0  89560-4 0  9996
2 40900  97.4389 128.2963 0013463  13.3004  90.7020 15.22572008199867
ZDPS 2A                 
1 40901U 15049C   19118.51855359  .00000692  00000-0  37700-4 0  9992
2 40901  97.4610 125.0852 0014588  28.1626  91.0219 15.17631962199470
ZDPS 2B                 
1 40902U 15049D   19118.40345221  .00001365  00000-0  71460-4 0  9992
2 40902  97.4547 122.5430 0014766  25.9313  83.7480 15.17416638199435
XW-2A                   
1 40903U 15049E   19118.57589944  .00001721  00000-0  42806-4 0  9991
2 40903  97.3441 161.0399 0012666 339.7626 146.6437 15.41648715202379
KAITUO 1A               
1 40904U 15049F   19118.43291255  .00000289  00000-0  18821-4 0  9990
2 40904  97.4673 121.3232 0015922  30.9343 104.8825 15.15311956199239
2015-049G               
1 40905U 15049G   19118.40548685  .00000583  00000-0  35377-4 0  9992
2 40905  97.4699 118.9126 0016990  25.6137  80.2508 15.14246638199115
XW-2C                   
1 40906U 15049H   19118.44835714  .00000417  00000-0  25418-4 0  9990
2 40906  97.4679 121.3799 0015802  23.7185 135.3092 15.15602808199230
XW-2D                   
1 40907U 15049J   19118.42797381  .00000602  00000-0  34957-4 0  9990
2 40907  97.4659 121.0395 0015444  20.9936 114.8716 15.15785995199248
LILACSAT-2              
1 40908U 15049K   19118.44351328  .00000084  00000-0  82539-5 0  9994
2 40908  97.4786 119.9838 0017084  25.2958 133.8934 15.13756935199054
XW-2F                   
1 40910U 15049M   19118.56661675  .00000868  00000-0  46987-4 0  9995
2 40910  97.4635 123.0593 0015639  14.7818 104.8611 15.17182311199264
XW-2B                   
1 40911U 15049N   19118.38674921  .00000691  00000-0  39650-4 0  9997
2 40911  97.4678 121.6315 0015008  22.8249  82.8312 15.15719043199131
KAITUO 1B               
1 40912U 15049P   19118.48371947  .00001269  00000-0  62916-4 0  9994
2 40912  97.4512 126.5053 0015388 359.1198 154.5621 15.19481734199533
TIANWANG 1C (TW-1C)     
1 40926U 15051B   19118.37550536  .00010048  00000-0  15333-3 0  9998
2 40926  97.1413 164.6380 0008070 188.1155 298.3403 15.54605638202185
TIANWANG 1A (TW-1A)     
1 40928U 15051D   19118.38290956  .00002937  00000-0  74454-4 0  9996
2 40928  97.1511 150.8205 0009168 257.1293 228.1561 15.40459463201271
LAPAN-A2                
1 40931U 15052B   19118.21878090  .00000596  00000-0 -60256-5 0  9990
2 40931   5.9967  63.6316 0012337 142.7102 217.4152 14.76603759193646
E-ST@R-II               
1 41459U 16025D   19118.42370366  .00001889  00000-0  10008-3 0  9996
2 41459  98.1024 202.3639 0169418 170.0697 190.3927 15.05285108164831
AAUSAT 4                
1 41460U 16025E   19118.46238772  .00002172  00000-0  11261-3 0  9994
2 41460  98.0956 203.5201 0158896 163.3442 197.3110 15.07083459164956
NUSAT-1 (FRESCO)        
1 41557U 16033B   19118.47700427  .00001273  00000-0  50585-4 0  9996
2 41557  97.4173 206.2813 0015482 116.4467 243.8362 15.27076158162274
BEESAT-4                
1 41619U 16040W   19118.46631008  .00001234  00000-0  55437-4 0  9998
2 41619  97.3719 181.6354 0010926 195.2535 164.8373 15.22975478146064
CAS-2T & KS-1Q          
1 41847U 16066G   19118.53667133  .00000029  00000-0  14645-4 0  9992
2 41847  98.7117 158.4281 0366455  27.3057 334.6879 14.37975836129646
NAYIF-1 (EO-88)         
1 42017U 17008BX  19118.46656534  .00001356  00000-0  56597-4 0  9990
2 42017  97.4069 186.0817 0006097   6.6670 353.4647 15.25369306122118
MAX VALIER SAT          
1 42778U 17036P   19118.37770500  .00000916  00000-0  43185-4 0  9995
2 42778  97.3594 177.1624 0013695  50.6499 309.5949 15.21910504102439
RADFXSAT (FOX-1B)       
1 43017U 17073E   19117.75777239  .00000568  00000-0  50285-4 0  9992
2 43017  97.7231  41.1454 0257695 327.8496  30.7219 14.78497036 77586
FOX-1D (AO-92)          
1 43137U 18004AC  19117.73871186  .00000787  00000-0  36110-4 0  9998
2 43137  97.4913 185.6485 0011026  81.1974 279.0511 15.23348864 71580
ES'HAIL 2               
1 43700U 18090A   19118.49182931  .00000135  00000-0  00000+0 0  9997
2 43700   0.0152 157.4806 0001485 269.0164 352.5227  1.00271284  1788
FOX-1CLIFF (AO-95)      
1 43770U 18099N   19118.15710137  .00000499  00000-0  51185-4 0  9999
2 43770  97.7482 190.6768 0015710 141.2972 218.9377 14.94728759 21722
ITASAT 1                
1 43786U 18099AE  19118.18674476 -.00000109  00000-0 -46055-5 0  9995
2 43786  97.7493 190.8197 0016354 136.5547 223.6965 14.95103598 21735
JY1SAT (JO-97)          
1 43803U 18099AX  19117.90818396 -.00000090  00000-0 -28782-5 0  9991
2 43803  97.7454 190.4860 0016284 137.8219 222.4258 14.95228255 21681
